STARLINK-31974          
1 59885C 24100A   26097.39840278  .00003340  00000+0  12098-3 0   978
2 59885  43.0015 323.2673 0001707 269.1246 230.7177 15.27576239    16
STARLINK-31975          
1 59886C 24100B   26097.34076389 -.00016747  00000+0 -60659-3 0   971
2 59886  43.0018 323.6249 0001411 273.9321 254.4158 15.27586318    13
STARLINK-31976          
1 59887C 24100C   26097.41645833  .00011391  00000+0  41257-3 0   977
2 59887  43.0024 327.0973 0000934 278.1958 111.5294 15.27575050    10
STARLINK-31965          
1 59888C 24100D   26097.40743056  .00010308  00000+0  37338-3 0   975
2 59888  43.0019 323.3993 0001454 273.0276 198.7330 15.27571856    19
STARLINK-31969          
1 59889C 24100E   26097.30187500 -.00020464  00000+0 -74128-3 0   975
2 59889  43.0017 320.3280 0001491 275.1894  64.6805 15.27585591    13
STARLINK-31951          
1 59890C 24100F   26097.33659722 -.00019092  00000+0 -69154-3 0   978
2 59890  43.0037 323.4110 0001775 262.5488 341.9275 15.27585412    11
STARLINK-31949          
1 59891C 24100G   26097.36993056 -.00006984  00000+0 -25305-3 0   979
2 59891  43.0019 323.3689 0001313 283.3940  80.8442 15.27567998    18
STARLINK-31977          
1 59892C 24100H   26097.39354167 -.00178710  00000+0 -64712-2 0   978
2 59892  43.0018 316.0610 0001564 270.3543 331.8749 15.27674892    15
STARLINK-31963          
1 59893C 24100J   26097.33729167 -.00013593  00000+0 -49248-3 0   974
2 59893  43.0017 323.7453 0001261 278.5299 188.2791 15.27576974    10
STARLINK-31961          
1 59894C 24100K   26097.34701389 -.00015676  00000+0 -56771-3 0   975
2 59894  43.0016 316.5604 0001455 266.1114 340.8487 15.27591094    10
STARLINK-31964          
1 59895C 24100L   26097.32062500 -.00020710  00000+0 -75031-3 0   974
2 59895  43.0038 323.3644 0001620 277.1756 295.9562 15.27580233    10
STARLINK-31905          
1 59896C 24100M   26097.39076389  .00004465  00000+0  16162-3 0   979
2 59896  43.0020 319.9555 0001763 262.6049 150.0956 15.27597086    18
STARLINK-31928          
1 59897C 24100N   26097.42409722  .00016344  00000+0  59194-3 0   976
2 59897  43.0021 323.4085 0001348 261.9446 259.1190 15.27572397    19
STARLINK-31953          
1 59898C 24100P   26097.37062500 -.00006932  00000+0 -25112-3 0   977
2 59898  43.0018 320.0196 0001357 263.5318  59.5122 15.27578536    16
STARLINK-31942          
1 59899C 24100Q   26097.33381944 -.00020834  00000+0 -75465-3 0   973
2 59899  43.0029 323.4789 0001866 271.3693 296.5603 15.27586078    19
STARLINK-31676          
1 59900C 24100R   26097.34284722 -.00015237  00000+0 -55181-3 0   977
2 59900  43.0019 323.6624 0001316 269.1414 249.4549 15.27590785    13
STARLINK-31908          
1 59901C 24100S   26097.34493056 -.00016036  00000+0 -58099-3 0   979
2 59901  43.0018 316.5211 0001705 269.1890 347.5385 15.27576793    17
STARLINK-31914          
1 59902C 24100T   26097.30534722 -.00020960  00000+0 -75909-3 0   972
2 59902  43.0021 324.0230 0001449 266.0237 342.4445 15.27592370    13
STARLINK-31850          
1 59903C 24100U   26097.39215278 -.00000636  00000+0 -23021-4 0   971
2 59903  43.0034 323.0171 0001821 277.0355 301.6019 15.27587567    14
STARLINK-31924          
1 59904C 24100V   26097.35048611 -.00017781  00000+0 -64405-3 0   972
2 59904  43.0019 323.4322 0001338 260.6318  17.8666 15.27585857    14
STARLINK-31898          
1 59905C 24100W   26097.33729167 -.00013617  00000+0 -49320-3 0   976
2 59905  43.0019 320.1734 0001561 265.8657 247.7922 15.27586829    16
STARLINK-31861          
1 59906C 24100X   26097.31506944 -.00015220  00000+0 -55127-3 0   975
2 59906  43.0017 316.5942 0001545 262.0814 218.5577 15.27586008    12
STARLINK-31920          
1 59907C 24100Y   26097.41645833  .00165450  00000+0  39446-2 0   972
2 59907  42.9968 287.7255 0014971 294.3938  76.8668 15.40517117    10
STARLINK-31872          
1 59922C 24106A   26097.38104167 -.00088272  00000+0 -31958-2 0   979
2 59922  42.9989 170.8267 0001486 255.9180 219.8493 15.27636704    18
STARLINK-31972          
1 59923C 24106B   26097.42409722 -.00086143  00000+0 -31198-2 0   971
2 59923  42.9995 170.3495 0001479 265.8961 185.9528 15.27624696    12
STARLINK-31958          
1 59924C 24106C   26097.35187500 -.00049239  00000+0 -17835-2 0   978
2 59924  43.0023 156.1433 0001396 286.3875  89.6782 15.27602218    19
STARLINK-31959          
1 59925C 24106D   26097.36576389 -.00053540  00000+0 -19390-2 0   975
2 59925  43.0013 166.7428 0001345 274.8601  23.0259 15.27608327    11
STARLINK-31957          
1 59926C 24106E   26097.38243056 -.00076652  00000+0 -27755-2 0   973
2 59926  43.0006 170.1136 0001511 261.2559 159.3046 15.27626009    10
STARLINK-31968          
1 59927C 24106F   26097.39076389 -.00064086  00000+0 -23209-2 0   976
2 59927  43.0010 170.1700 0000668 263.8122 160.1705 15.27614848    19
STARLINK-31970          
1 59928C 24106G   26097.31854167 -.00036203  00000+0 -13101-2 0   977
2 59928  42.9998 170.8938 0001927 265.6449 346.2618 15.27623967    16
STARLINK-31932          
1 59929C 24106H   26097.30118056 -.00031908  00000+0 -11552-2 0   972
2 59929  43.0000 167.7367 0001425 267.0945 119.3263 15.27609171    10
STARLINK-31956          
1 59930C 24106J   26097.32409722 -.00027742  00000+0 -10041-2 0   972
2 59930  43.0021 170.7806 0001382 268.9028  48.9823 15.27616124    16
STARLINK-31960          
1 59931C 24106K   26097.32687500 -.00030499  00000+0 -11039-2 0   976
2 59931  43.0008 170.5618 0001306 259.0163 159.0582 15.27616440    15
STARLINK-31432          
1 59932C 24106L   26097.42062500 -.00002473  00000+0 -89638-4 0   978
2 59932  42.9994 170.3837 0001624 288.2982 137.2810 15.27556946    11
STARLINK-31853          
1 59933C 24106M   26097.35048611 -.00157890  00000+0 -57074-2 0   979
2 59933  43.0007 170.6802 0001434 268.1257 173.8254 15.27722035    17
STARLINK-31971          
1 59934C 24106N   26097.36020833 -.00098780  00000+0 -35765-2 0   972
2 59934  43.0011 167.4112 0001597 267.3029  62.9347 15.27638947    18
STARLINK-31962          
1 59936C 24106Q   26097.37131944 -.00068365  00000+0 -24752-2 0   971
2 59936  42.9991 170.8440 0001388 265.7073 170.6833 15.27625037    19
STARLINK-31879          
1 59937C 24106R   26097.35812500 -.00047215  00000+0 -17091-2 0   973
2 59937  42.9994 171.0545 0001631 263.3625  43.7904 15.27620399    15
STARLINK-31876          
1 59938C 24106S   26097.30743056 -.00034157  00000+0 -12366-2 0   979
2 59938  43.0020 170.8234 0001330 252.8842 354.4763 15.27609841    14
STARLINK-31955          
1 59939C 24106T   26097.36576389 -.00034503  00000+0 -12499-2 0   971
2 59939  43.0013 170.3927 0000955 275.6268 335.3628 15.27590738    10
STARLINK-31946          
1 59940C 24106U   26097.31506944 -.00027212  00000+0 -98551-3 0   971
2 59940  42.9993 171.2450 0001303 263.3672 187.9535 15.27595965    14
STARLINK-31948          
1 59941C 24106V   26097.34631944 -.00046170  00000+0 -16718-2 0   972
2 59941  43.0000 167.4300 0001504 260.6398  35.5460 15.27611710    17
STARLINK-31900          
1 59942C 24106W   26097.40604167  .00000250  00000+0  90608-5 0   977
2 59942  43.0022 170.0287 0001339 258.8417 270.4102 15.27561763    18
STARLINK-31973          
1 59943C 24106X   26097.30673611 -.00018312  00000+0 -66273-3 0   976
2 59943  42.9990 171.1123 0001880 261.6567 221.5818 15.27612672    18
STARLINK-31966          
1 59944C 24106Y   26097.39562500 -.00079067  00000+0 -28624-2 0   971
2 59944  42.9990 170.5555 0001381 275.8877 357.9908 15.27634079    17
STARLINK-11145 [DTC]    
1 59945C 24107A   26097.33104167 -.00079970  00000+0 -65897-3 0   975
2 59945  53.1568 110.3870 0001250  84.1191 151.1565 15.69740699    15
STARLINK-11113 [DTC]    
1 59947C 24107C   26097.32131944 -.00088420  00000+0 -72868-3 0   975
2 59947  53.1573 109.7435 0001295  84.3593  68.7881 15.69742230    16
STARLINK-11123 [DTC]    
1 59948C 24107D   26097.34770833 -.00091838  00000+0 -75680-3 0   976
2 59948  53.1567 110.1903 0001227  90.2543 294.7317 15.69745542    16
STARLINK-11138 [DTC]    
1 59949C 24107E   26097.29145833 -.00100710  00000+0 -82941-3 0   975
2 59949  53.1566 110.2363 0001265 102.8753  75.0009 15.69763753    14
STARLINK-11130 [DTC]    
1 59950C 24107F   26097.32826389 -.00118510  00000+0 -97617-3 0   976
2 59950  53.1565 110.2288 0001179  98.5076 204.2626 15.69768303    11
STARLINK-11124 [DTC]    
1 59952C 24107H   26097.30326389 -.00105760  00000+0 -87158-3 0   973
2 59952  53.1566 110.2389 0000940  88.1381 128.7606 15.69750670    11
STARLINK-11133 [DTC]    
1 59954C 24107K   26097.42340278 -.00031167  00000+0 -25686-3 0   978
2 59954  53.1571 109.4767 0001330  75.5380 183.8707 15.69712338    15
STARLINK-11144 [DTC]    
1 59955C 24107L   26097.37340278 -.00049605  00000+0 -40880-3 0   972
2 59955  53.1570 109.6719 0001071  91.8211 272.5952 15.69723475    12
STARLINK-11134 [DTC]    
1 59956C 24107M   26097.41298611 -.00016883  00000+0 -13913-3 0   970
2 59956  53.1571 109.4144 0001209  66.9466 189.0358 15.69707285    15
STARLINK-11142 [DTC]    
1 59957C 24107N   26097.38520833 -.00041371  00000+0 -34094-3 0   974
2 59957  53.1573 109.4944 0001257  83.4616  43.1957 15.69718503    10
STARLINK-31995          
1 59958C 24107P   26097.32618056  .00017812  00000+0  60049-3 0   974
2 59958  53.1599 292.4647 0001172  90.3981 195.0469 15.30173943    16
STARLINK-31989          
1 59959C 24107Q   26097.29909722  .00008829  00000+0  29762-3 0   979
2 59959  53.1603 292.5236 0001196  90.1588  80.9067 15.30181102    17
STARLINK-31856          
1 59960C 24107R   26097.35604167  .00175290  00000+0  58992-2 0   976
2 59960  53.1600 292.2922 0000988  81.2513  26.2377 15.30151428    17
STARLINK-31993          
1 59961C 24107S   26097.31784722  .00024355  00000+0  82122-3 0   977
2 59961  53.1589 292.5715 0000663 100.3694 104.1455 15.30164885    14
